[{"OBJECT_NAME":"FLORIPASAT-1","OBJECT_ID":"2019-093G","EPOCH":"2026-03-09T23:35:55.317696","MEAN_MOTION":15.02721611,"ECCENTRICITY":0.00131238,"INCLINATION":97.7908,"RA_OF_ASC_NODE":162.596,"ARG_OF_PERICENTER":52.6692,"MEAN_ANOMALY":307.5727,"EPHEMERIS_TYPE":0,"CLASSIFICATION_TYPE":"U","NORAD_CAT_ID":44885,"ELEMENT_SET_NO":999,"REV_AT_EPOCH":33774,"BSTAR":0.00066057159,"MEAN_MOTION_DOT":8.782e-5,"MEAN_MOTION_DDOT":0},{"OBJECT_NAME":"STARLINK-34809","OBJECT_ID":"2025-165P","EPOCH":"2026-03-09T17:17:32.677440","MEAN_MOTION":15.05641231,"ECCENTRICITY":0.00014451,"INCLINATION":97.6018,"RA_OF_ASC_NODE":147.2388,"ARG_OF_PERICENTER":90.5075,"MEAN_ANOMALY":269.6317,"EPHEMERIS_TYPE":0,"CLASSIFICATION_TYPE":"U","NORAD_CAT_ID":65069,"ELEMENT_SET_NO":999,"REV_AT_EPOCH":3479,"BSTAR":0.00029193713,"MEAN_MOTION_DOT":4.153e-5,"MEAN_MOTION_DDOT":0}]
